CONNECTA IOT-10
1 64555U 25135AD  25322.78383400  .00005432  00000+0  25925-3 0  9997
2 64555  97.4549  75.1459 0001226  49.1511 310.9830 15.19476465 22891
